NORAD_CAT_ID,OBJECT_NAME,OBJECT_TYPE,EPOCH,MEAN_MOTION,ECCENTRICITY,INCLINATION,RA_OF_ASC_NODE,ARG_OF_PERICENTER,MEAN_ANOMALY,BSTAR,MEAN_MOTION_DOT,MEAN_MOTION_DDOT,TLE_LINE0,TLE_LINE1,TLE_LINE2,SEMIMAJOR_AXIS,PERIOD,APOGEE,PERIGEE,DECAYED
52600.0,STARLINK-4026,PAYLOAD,2023-11-15 16:49:37,15.08846918,0.000151,53.2138,112.4182,90.2737,269.8428,8.9688e-05,1.14e-05,0.0,0 STARLINK-4026,1 52600U 22052C   23319.70112620  .00001140  00000-0  89688-4 0  9990,2 52600  53.2138 112.4182 0001510  90.2737 269.8428 15.08846918 83663,6917.859,95.437,540.769,538.68,0.0
52600.0,STARLINK-4026,PAYLOAD,2023-11-16 16:40:24,15.08837349,0.0001296,53.215,107.9584,88.0419,272.0721,8.7507e-05,1.105e-05,0.0,0 STARLINK-4026,1 52600U 22052C   23320.69473178  .00001105  00000-0  87507-4 0  9997,2 52600  53.2150 107.9584 0001296  88.0419 272.0721 15.08837349 83812,6917.888,95.438,540.65,538.857,0.0
52600.0,STARLINK-4026,PAYLOAD,2023-11-17 13:20:26,15.08834896,0.0001343,53.2176,104.0949,86.5542,273.5604,-2.5192e-05,-6.89e-06,0.0,0 STARLINK-4026,1 52600U 22052C   23321.55585849 -.00000689  00000-0 -25192-4 0  9992,2 52600  53.2176 104.0949 0001343  86.5542 273.5604 15.08834896 84378,6917.896,95.438,540.69,538.832,0.0
52600.0,STARLINK-4026,PAYLOAD,2023-11-17 19:41:59,15.08830398,0.0001307,53.2173,102.9045,87.2861,272.8281,-7.0737e-05,-1.413e-05,0.0,0 STARLINK-4026,1 52600U 22052C   23321.82082327 -.00001413  00000-0 -70737-4 0  9996,2 52600  53.2173 102.9045 0001307  87.2861 272.8281 15.08830398 83983,6917.91,95.438,540.679,538.871,0.0
52600.0,STARLINK-4026,PAYLOAD,2023-11-18 08:25:04,15.08829257,0.0001157,53.2187,100.5252,83.8823,276.2301,2.2953e-05,7.7e-07,0.0,0 STARLINK-4026,1 52600U 22052C   23322.35074350  .00000077  00000-0  22953-4 0  9992,2 52600  53.2187 100.5252 0001157  83.8823 276.2301 15.08829257 84495,6917.913,95.438,540.579,538.978,0.0
52600.0,STARLINK-4026,PAYLOAD,2023-11-18 16:21:59,15.08835999,0.0001192,53.2176,99.039,85.7253,274.3876,6.9557e-05,8.19e-06,0.0,0 STARLINK-4026,1 52600U 22052C   23322.68193911  .00000819  00000-0  69557-4 0  9998,2 52600  53.2176  99.0390 0001192  85.7253 274.3876 15.08835999 84110,6917.893,95.438,540.582,538.933,0.0
52600.0,STARLINK-4026,PAYLOAD,2023-11-19 14:37:23,15.08836584,0.0001219,53.2166,94.8766,90.1645,269.9487,0.00014359,1.998e-05,0.0,0 STARLINK-4026,1 52600U 22052C   23323.60929990  .00001998  00000-0  14359-3 0  9993,2 52600  53.2166  94.8766 0001219  90.1645 269.9487 15.08836584 84685,6917.891,95.438,540.599,538.913,0.0
52600.0,STARLINK-4026,PAYLOAD,2023-11-19 16:12:46,15.0883733,0.0001212,53.2167,94.5791,90.1299,269.9832,0.00014818,2.071e-05,0.0,0 STARLINK-4026,1 52600U 22052C   23323.67553967  .00002071  00000-0  14818-3 0  9990,2 52600  53.2167  94.5791 0001212  90.1299 269.9832 15.08837330 84694,6917.889,95.438,540.592,538.915,0.0
52600.0,STARLINK-4026,PAYLOAD,2023-11-20 01:45:05,15.08839051,0.000122,53.2167,92.7952,90.4276,269.6856,0.00012191,1.653e-05,0.0,0 STARLINK-4026,1 52600U 22052C   23324.07297956  .00001653  00000-0  12191-3 0  9995,2 52600  53.2167  92.7952 0001220  90.4276 269.6856 15.08839051 84325,6917.883,95.438,540.592,538.904,0.0
52600.0,STARLINK-4026,PAYLOAD,2023-11-20 14:28:10,15.08845889,0.0001316,53.2175,90.4166,91.4452,268.6691,0.00011434,1.533e-05,0.0,0 STARLINK-4026,1 52600U 22052C   23324.60289604  .00001533  00000-0  11434-3 0  9991,2 52600  53.2175  90.4166 0001316  91.4452 268.6691 15.08845889 84837,6917.862,95.437,540.638,538.817,0.0
52600.0,STARLINK-4026,PAYLOAD,2023-11-20 17:38:56,15.08850281,0.0001336,53.2177,89.822,91.7284,268.3861,0.00015099,2.117e-05,0.0,0 STARLINK-4026,1 52600U 22052C   23324.73537206  .00002117  00000-0  15099-3 0  9999,2 52600  53.2177  89.8220 0001336  91.7284 268.3861 15.08850281 84423,6917.849,95.437,540.638,538.79,0.0
52600.0,STARLINK-4026,PAYLOAD,2023-11-21 01:35:52,15.08842303,0.0001297,53.2181,88.3338,87.2647,272.8493,6.2943e-05,7.14e-06,0.0,0 STARLINK-4026,1 52600U 22052C   23325.06657825  .00000714  00000-0  62943-4 0  9998,2 52600  53.2181  88.3338 0001297  87.2647 272.8493 15.08842303 84473,6917.873,95.437,540.636,538.841,0.0
52600.0,STARLINK-4026,PAYLOAD,2023-11-21 12:43:34,15.08846009,0.000143,53.2178,86.2542,90.8842,269.2314,3.5291e-05,2.74e-06,0.0,0 STARLINK-4026,1 52600U 22052C   23325.53025692  .00000274  00000-0  35291-4 0  9998,2 52600  53.2178  86.2542 0001430  90.8842 269.2314 15.08846009 84973,6917.862,95.437,540.716,538.738,0.0
52600.0,STARLINK-4026,PAYLOAD,2023-11-21 17:29:42,15.08853292,0.0001334,53.2178,85.3608,91.2471,268.8674,0.00010222,1.34e-05,0.0,0 STARLINK-4026,1 52600U 22052C   23325.72896946  .00001340  00000-0  10222-3 0  9998,2 52600  53.2178  85.3608 0001334  91.2471 268.8674 15.08853292 85003,6917.84,95.437,540.628,538.782,0.0
52600.0,STARLINK-4026,PAYLOAD,2023-11-22 14:09:43,15.08857469,0.0001551,53.2183,81.4949,86.8799,273.237,6.7539e-05,7.88e-06,0.0,0 STARLINK-4026,1 52600U 22052C   23326.59008399  .00000788  00000-0  67539-4 0  9990,2 52600  53.2183  81.4949 0001551  86.8799 273.2370 15.08857469 85135,6917.827,95.436,540.765,538.619,0.0
52600.0,STARLINK-4026,PAYLOAD,2023-11-23 10:49:45,15.08835487,0.0001277,53.2171,77.6294,78.5216,281.592,-1.123e-05,-4.67e-06,0.0,0 STARLINK-4026,1 52600U 22052C   23327.45121625 -.00000467  00000-0 -11230-4 0  9997,2 52600  53.2171  77.6294 0001277  78.5216 281.5920 15.08835487 84834,6917.894,95.438,540.643,538.876,0.0
52600.0,STARLINK-4026,PAYLOAD,2023-11-23 14:00:31,15.08837522,0.0001472,53.217,77.0313,120.3632,239.7505,-4.7576e-05,-1.045e-05,0.0,0 STARLINK-4026,1 52600U 22052C   23327.58369285 -.00001045  00000-0 -47576-4 0  9992,2 52600  53.2170  77.0313 0001472 120.3632 239.7505 15.08837522 85280,6917.888,95.438,540.771,538.735,0.0
52600.0,STARLINK-4026,PAYLOAD,2023-11-24 13:51:18,15.08843441,0.0001482,53.2182,72.5744,101.8293,258.2866,-0.00011525,-2.122e-05,0.0,0 STARLINK-4026,1 52600U 22052C   23328.57730057 -.00002122  00000-0 -11525-3 0  9992,2 52600  53.2182  72.5744 0001482 101.8293 258.2866 15.08843441 85439,6917.87,95.437,540.76,538.71,0.0
52600.0,STARLINK-4026,PAYLOAD,2023-11-24 15:26:41,15.08831983,0.0001604,53.2176,72.2755,104.0351,256.0819,9.2521e-05,1.184e-05,0.0,0 STARLINK-4026,1 52600U 22052C   23328.64354155  .00001184  00000-0  92521-4 0  9992,2 52600  53.2176  72.2755 0001604 104.0351 256.0819 15.08831983 85013,6917.905,95.438,540.88,538.66,0.0
52600.0,STARLINK-4026,PAYLOAD,2023-11-25 13:42:04,15.08854963,0.0001627,53.2182,68.1096,104.551,255.5663,0.00039399,5.99e-05,0.0,0 STARLINK-4026,1 52600U 22052C   23329.57089092  .00005990  00000-0  39399-3 0  9992,2 52600  53.2182  68.1096 0001627 104.5510 255.5663 15.08854963 85585,6917.835,95.437,540.825,538.574,0.0
52600.0,STARLINK-4026,PAYLOAD,2023-11-26 13:32:51,15.08859618,0.0001534,53.2185,63.652,102.2072,257.9092,0.00023446,3.447e-05,0.0,0 STARLINK-4026,1 52600U 22052C   23330.56448526  .00003447  00000-0  23446-3 0  9995,2 52600  53.2185  63.6520 0001534 102.2072 257.9092 15.08859618 85736,6917.82,95.436,540.747,538.624,0.0
52600.0,STARLINK-4026,PAYLOAD,2023-11-27 11:48:16,15.08816192,0.0001477,53.2185,59.484,112.5647,247.5502,-0.00047396,-7.818e-05,0.0,0 STARLINK-4026,1 52600U 22052C   23331.49186114 -.00007818  00000-0 -47396-3 0  9998,2 52600  53.2185  59.4840 0001477 112.5647 247.5502 15.08816192 85441,6917.953,95.439,540.84,538.796,0.0
52600.0,STARLINK-4026,PAYLOAD,2023-11-27 13:23:40,15.08818154,0.0001334,53.2181,59.187,104.2547,255.8593,-0.00046007,-7.598e-05,0.0,0 STARLINK-4026,1 52600U 22052C   23331.55810329 -.00007598  00000-0 -46007-3 0  9990,2 52600  53.2181  59.1870 0001334 104.2547 255.8593 15.08818154 85886,6917.947,95.439,540.735,538.889,0.0
52600.0,STARLINK-4026,PAYLOAD,2023-11-28 11:39:04,15.08846431,0.0001547,53.2183,55.0298,99.9959,260.1207,0.00047576,7.293e-05,0.0,0 STARLINK-4026,1 52600U 22052C   23332.48546511  .00007293  00000-0  47576-3 0  9994,2 52600  53.2183  55.0298 0001547  99.9959 260.1207 15.08846431 85598,6917.861,95.437,540.796,538.656,0.0
52600.0,STARLINK-4026,PAYLOAD,2023-11-28 13:14:27,15.08851925,0.0001447,53.2183,54.7324,83.7962,276.3195,0.00062391,9.659e-05,0.0,0 STARLINK-4026,1 52600U 22052C   23332.55170668  .00009659  00000-0  62391-3 0  9998,2 52600  53.2183  54.7324 0001447  83.7962 276.3195 15.08851925 86037,6917.844,95.437,540.71,538.708,0.0
52600.0,STARLINK-4026,PAYLOAD,2023-11-29 11:29:52,15.08840308,0.00016,53.2177,50.5669,65.3371,294.7788,0.00037062,5.615e-05,0.0,0 STARLINK-4026,1 52600U 22052C   23333.47907589  .00005615  00000-0  37062-3 0  9995,2 52600  53.2177  50.5669 0001600  65.3371 294.7788 15.08840308 85749,6917.879,95.438,540.851,538.638,0.0
52600.0,STARLINK-4026,PAYLOAD,2023-11-29 13:05:15,15.08843523,0.000172,53.2182,50.2703,63.4505,296.6663,0.00041533,6.329e-05,0.0,0 STARLINK-4026,1 52600U 22052C   23333.54531550  .00006329  00000-0  41533-3 0  9995,2 52600  53.2182  50.2703 0001720  63.4505 296.6663 15.08843523 86186,6917.87,95.437,540.924,538.545,0.0
52600.0,STARLINK-4026,PAYLOAD,2023-12-01 11:11:25,15.08844644,0.0001806,53.2196,41.6525,123.1986,236.9179,0.0001499,2.099e-05,0.0,0 STARLINK-4026,1 52600U 22052C   23335.46627222  .00002099  00000-0  14990-3 0  9997,2 52600  53.2196  41.6525 0001806 123.1986 236.9179 15.08844644 86048,6917.866,95.437,540.981,538.482,0.0
52600.0,STARLINK-4026,PAYLOAD,2023-12-02 11:02:10,15.08893948,0.0001415,53.2188,37.1865,110.7557,249.3587,0.0015006,0.0002371,0.0,0 STARLINK-4026,1 52600U 22052C   23336.45984939  .00023710  00000-0  15006-2 0  9999,2 52600  53.2188  37.1865 0001415 110.7557 249.3587 15.08893948 86196,6917.715,95.434,540.559,538.602,0.0
52600.0,STARLINK-4026,PAYLOAD,2023-12-03 10:52:59,15.08800251,0.0001688,53.2183,32.7255,131.4083,228.7054,-0.00084464,-0.00013691,0.0,0 STARLINK-4026,1 52600U 22052C   23337.45347076 -.00013691  00000-0 -84464-3 0  9999,2 52600  53.2183  32.7255 0001688 131.4083 228.7054 15.08800251 86343,6918.002,95.44,541.035,538.699,0.0
